STARLINK-31310          
1 59092U 24041U   25250.06580864  .00002323  00000+0  93870-4 0  9997
2 59092  42.9989 268.1406 0001075 264.5073  95.5656 15.27594280 86187
STARLINK-31343          
1 59093U 24041V   25250.11834272  .00011064  00000+0  41095-3 0  9992
2 59093  43.0004 267.6740 0001500 269.2905  90.7774 15.27582972 86242
STARLINK-31295          
1 59095U 24041X   25250.09646896 -.00033055  00000+0 -11955-2 0  9991
2 59095  43.0033 267.5087 0002219 258.0627 101.9976 15.27618343 86199
STARLINK-31291          
1 59096U 24041Y   25250.09392097  .00003987  00000+0  15440-3 0  9996
2 59096  43.0022 267.4860 0000972 279.2533  80.8209 15.27564186 86190
STARLINK-31312          
1 59152U 24044A   25250.03850564  .00000242  00000+0  18304-4 0  9998
2 59152  43.0009  13.4861 0001301 267.9491  92.1211 15.27580580 86096
STARLINK-31308          
1 59153U 24044B   25249.67014756  .00006441  00000+0  24334-3 0  9998
2 59153  43.0017  19.4362 0001205 249.2527 110.8195 15.27586993 86008
STARLINK-31270          
1 59154U 24044C   25250.20908053  .00003391  00000+0  13264-3 0  9993
2 59154  43.0028  63.3104 0001452 278.2104  81.8583 15.27591382 85533
STARLINK-31341          
1 59155U 24044D   25250.21651905  .00001617  00000+0  71632-4 0  9999
2 59155  43.0027  65.9572 0001463 270.0354  90.0330 15.25915217 85479
STARLINK-31338          
1 59156U 24044E   25250.21425438 -.00013263  00000+0 -49817-3 0  9991
2 59156  43.0004  65.9393 0001855 272.0430  88.0208 15.25902464 85479
STARLINK-31334          
1 59157U 24044F   25250.21200170 -.00000757  00000+0 -19111-4 0  9995
2 59157  43.0035  65.9191 0001084 275.7314  84.3413 15.25909716 85479
STARLINK-31297          
1 59158U 24044G   25250.21292537 -.00002318  00000+0 -74680-4 0  9991
2 59158  43.0049  63.3367 0001411 279.3869  80.6823 15.27606329 85538
STARLINK-31182          
1 59159U 24044H   25250.17566644  .00001773  00000+0  73939-4 0  9998
2 59159  43.0016  63.0646 0001885 279.3027  80.7611 15.27587170 85539
STARLINK-31327          
1 59160U 24044J   25249.82318166  .00002570  00000+0  10286-3 0  9995
2 59160  43.0038  65.5698 0001662 264.1750  95.8912 15.27590218 85478
STARLINK-31256          
1 59161U 24044K   25249.91797252  .00002671  00000+0  10650-3 0  9990
2 59161  43.0040  64.5671 0001599 274.9238  85.1431 15.27592836 85499
STARLINK-31272          
1 59162U 24044L   25250.18337613  .00000530  00000+0  28784-4 0  9993
2 59162  42.9977  63.1221 0001320 270.6024  89.4676 15.27588970 85505
STARLINK-31278          
1 59163U 24044M   25250.18723306 -.00001299  00000+0 -37671-4 0  9992
2 59163  43.0014  63.1508 0000878 289.0213  71.0543 15.27585913 85503
