[{"OBJECT_NAME":"STARLINK-31310","OBJECT_ID":"2024-041U","EPOCH":"2025-09-07T01:34:45.866496","MEAN_MOTION":15.2759428,"ECCENTRICITY":0.00010759,"INCLINATION":42.9989,"RA_OF_ASC_NODE":268.1406,"ARG_OF_PERICENTER":264.5073,"MEAN_ANOMALY":95.5656,"EPHEMERIS_TYPE":0,"CLASSIFICATION_TYPE":"U","NORAD_CAT_ID":59092,"ELEMENT_SET_NO":999,"REV_AT_EPOCH":8618,"BSTAR":9.3870244e-5,"MEAN_MOTION_DOT":2.323e-5,"MEAN_MOTION_DDOT":0},{"OBJECT_NAME":"STARLINK-31343","OBJECT_ID":"2024-041V","EPOCH":"2025-09-07T02:50:24.811008","MEAN_MOTION":15.27582972,"ECCENTRICITY":0.00015009,"INCLINATION":43.0004,"RA_OF_ASC_NODE":267.674,"ARG_OF_PERICENTER":269.2905,"MEAN_ANOMALY":90.7774,"EPHEMERIS_TYPE":0,"CLASSIFICATION_TYPE":"U","NORAD_CAT_ID":59093,"ELEMENT_SET_NO":999,"REV_AT_EPOCH":8624,"BSTAR":0.00041094988,"MEAN_MOTION_DOT":0.00011064,"MEAN_MOTION_DDOT":0},{"OBJECT_NAME":"STARLINK-31295","OBJECT_ID":"2024-041X","EPOCH":"2025-09-07T02:18:54.918144","MEAN_MOTION":15.27618343,"ECCENTRICITY":0.0002219,"INCLINATION":43.0033,"RA_OF_ASC_NODE":267.5087,"ARG_OF_PERICENTER":258.0627,"MEAN_ANOMALY":101.9976,"EPHEMERIS_TYPE":0,"CLASSIFICATION_TYPE":"U","NORAD_CAT_ID":59095,"ELEMENT_SET_NO":999,"REV_AT_EPOCH":8619,"BSTAR":-0.0011955454,"MEAN_MOTION_DOT":-0.00033055,"MEAN_MOTION_DDOT":0},{"OBJECT_NAME":"STARLINK-31291","OBJECT_ID":"2024-041Y","EPOCH":"2025-09-07T02:15:14.771808","MEAN_MOTION":15.27564186,"ECCENTRICITY":9.721e-5,"INCLINATION":43.0022,"RA_OF_ASC_NODE":267.486,"ARG_OF_PERICENTER":279.2533,"MEAN_ANOMALY":80.8209,"EPHEMERIS_TYPE":0,"CLASSIFICATION_TYPE":"U","NORAD_CAT_ID":59096,"ELEMENT_SET_NO":999,"REV_AT_EPOCH":8619,"BSTAR":0.00015439733,"MEAN_MOTION_DOT":3.987e-5,"MEAN_MOTION_DDOT":0},{"OBJECT_NAME":"STARLINK-31312","OBJECT_ID":"2024-044A","EPOCH":"2025-09-07T00:55:26.887296","MEAN_MOTION":15.2758058,"ECCENTRICITY":0.00013016,"INCLINATION":43.0009,"RA_OF_ASC_NODE":13.4861,"ARG_OF_PERICENTER":267.9491,"MEAN_ANOMALY":92.1211,"EPHEMERIS_TYPE":0,"CLASSIFICATION_TYPE":"U","NORAD_CAT_ID":59152,"ELEMENT_SET_NO":999,"REV_AT_EPOCH":8609,"BSTAR":1.8303923e-5,"MEAN_MOTION_DOT":2.42e-6,"MEAN_MOTION_DDOT":0},{"OBJECT_NAME":"STARLINK-31308","OBJECT_ID":"2024-044B","EPOCH":"2025-09-06T16:05:00.749184","MEAN_MOTION":15.27586993,"ECCENTRICITY":0.00012053,"INCLINATION":43.0017,"RA_OF_ASC_NODE":19.4362,"ARG_OF_PERICENTER":249.2527,"MEAN_ANOMALY":110.8195,"EPHEMERIS_TYPE":0,"CLASSIFICATION_TYPE":"U","NORAD_CAT_ID":59153,"ELEMENT_SET_NO":999,"REV_AT_EPOCH":8600,"BSTAR":0.0002433401,"MEAN_MOTION_DOT":6.441e-5,"MEAN_MOTION_DDOT":0},{"OBJECT_NAME":"STARLINK-31270","OBJECT_ID":"2024-044C","EPOCH":"2025-09-07T05:01:04.557792","MEAN_MOTION":15.27591382,"ECCENTRICITY":0.00014522,"INCLINATION":43.0028,"RA_OF_ASC_NODE":63.3104,"ARG_OF_PERICENTER":278.2104,"MEAN_ANOMALY":81.8583,"EPHEMERIS_TYPE":0,"CLASSIFICATION_TYPE":"U","NORAD_CAT_ID":59154,"ELEMENT_SET_NO":999,"REV_AT_EPOCH":8553,"BSTAR":0.00013263605,"MEAN_MOTION_DOT":3.391e-5,"MEAN_MOTION_DDOT":0},{"OBJECT_NAME":"STARLINK-31341","OBJECT_ID":"2024-044D","EPOCH":"2025-09-07T05:11:47.245920","MEAN_MOTION":15.25915217,"ECCENTRICITY":0.00014636,"INCLINATION":43.0027,"RA_OF_ASC_NODE":65.9572,"ARG_OF_PERICENTER":270.0354,"MEAN_ANOMALY":90.033,"EPHEMERIS_TYPE":0,"CLASSIFICATION_TYPE":"U","NORAD_CAT_ID":59155,"ELEMENT_SET_NO":999,"REV_AT_EPOCH":8547,"BSTAR":7.1632346e-5,"MEAN_MOTION_DOT":1.617e-5,"MEAN_MOTION_DDOT":0},{"OBJECT_NAME":"STARLINK-31338","OBJECT_ID":"2024-044E","EPOCH":"2025-09-07T05:08:31.578432","MEAN_MOTION":15.25902464,"ECCENTRICITY":0.00018557,"INCLINATION":43.0004,"RA_OF_ASC_NODE":65.9393,"ARG_OF_PERICENTER":272.043,"MEAN_ANOMALY":88.0208,"EPHEMERIS_TYPE":0,"CLASSIFICATION_TYPE":"U","NORAD_CAT_ID":59156,"ELEMENT_SET_NO":999,"REV_AT_EPOCH":8547,"BSTAR":-0.00049816639,"MEAN_MOTION_DOT":-0.00013263,"MEAN_MOTION_DDOT":0},{"OBJECT_NAME":"STARLINK-31334","OBJECT_ID":"2024-044F","EPOCH":"2025-09-07T05:05:16.946880","MEAN_MOTION":15.25909716,"ECCENTRICITY":0.00010844,"INCLINATION":43.0035,"RA_OF_ASC_NODE":65.9191,"ARG_OF_PERICENTER":275.7314,"MEAN_ANOMALY":84.3413,"EPHEMERIS_TYPE":0,"CLASSIFICATION_TYPE":"U","NORAD_CAT_ID":59157,"ELEMENT_SET_NO":999,"REV_AT_EPOCH":8547,"BSTAR":-1.9111088e-5,"MEAN_MOTION_DOT":-7.57e-6,"MEAN_MOTION_DDOT":0},{"OBJECT_NAME":"STARLINK-31297","OBJECT_ID":"2024-044G","EPOCH":"2025-09-07T05:06:36.751968","MEAN_MOTION":15.27606329,"ECCENTRICITY":0.00014117,"INCLINATION":43.0049,"RA_OF_ASC_NODE":63.3367,"ARG_OF_PERICENTER":279.3869,"MEAN_ANOMALY":80.6823,"EPHEMERIS_TYPE":0,"CLASSIFICATION_TYPE":"U","NORAD_CAT_ID":59158,"ELEMENT_SET_NO":999,"REV_AT_EPOCH":8553,"BSTAR":-7.4680273e-5,"MEAN_MOTION_DOT":-2.318e-5,"MEAN_MOTION_DDOT":0},{"OBJECT_NAME":"STARLINK-31182","OBJECT_ID":"2024-044H","EPOCH":"2025-09-07T04:12:57.580416","MEAN_MOTION":15.2758717,"ECCENTRICITY":0.00018852,"INCLINATION":43.0016,"RA_OF_ASC_NODE":63.0646,"ARG_OF_PERICENTER":279.3027,"MEAN_ANOMALY":80.7611,"EPHEMERIS_TYPE":0,"CLASSIFICATION_TYPE":"U","NORAD_CAT_ID":59159,"ELEMENT_SET_NO":999,"REV_AT_EPOCH":8553,"BSTAR":7.3938809e-5,"MEAN_MOTION_DOT":1.773e-5,"MEAN_MOTION_DDOT":0},{"OBJECT_NAME":"STARLINK-31327","OBJECT_ID":"2024-044J","EPOCH":"2025-09-06T19:45:22.895424","MEAN_MOTION":15.27590218,"ECCENTRICITY":0.00016622,"INCLINATION":43.0038,"RA_OF_ASC_NODE":65.5698,"ARG_OF_PERICENTER":264.175,"MEAN_ANOMALY":95.8912,"EPHEMERIS_TYPE":0,"CLASSIFICATION_TYPE":"U","NORAD_CAT_ID":59160,"ELEMENT_SET_NO":999,"REV_AT_EPOCH":8547,"BSTAR":0.00010285927,"MEAN_MOTION_DOT":2.57e-5,"MEAN_MOTION_DDOT":0},{"OBJECT_NAME":"STARLINK-31256","OBJECT_ID":"2024-044K","EPOCH":"2025-09-06T22:01:52.825728","MEAN_MOTION":15.27592836,"ECCENTRICITY":0.00015998,"INCLINATION":43.004,"RA_OF_ASC_NODE":64.5671,"ARG_OF_PERICENTER":274.9238,"MEAN_ANOMALY":85.1431,"EPHEMERIS_TYPE":0,"CLASSIFICATION_TYPE":"U","NORAD_CAT_ID":59161,"ELEMENT_SET_NO":999,"REV_AT_EPOCH":8549,"BSTAR":0.00010650263,"MEAN_MOTION_DOT":2.671e-5,"MEAN_MOTION_DDOT":0},{"OBJECT_NAME":"STARLINK-31272","OBJECT_ID":"2024-044L","EPOCH":"2025-09-07T04:24:03.697632","MEAN_MOTION":15.2758897,"ECCENTRICITY":0.00013206,"INCLINATION":42.9977,"RA_OF_ASC_NODE":63.1221,"ARG_OF_PERICENTER":270.6024,"MEAN_ANOMALY":89.4676,"EPHEMERIS_TYPE":0,"CLASSIFICATION_TYPE":"U","NORAD_CAT_ID":59162,"ELEMENT_SET_NO":999,"REV_AT_EPOCH":8550,"BSTAR":2.8783644e-5,"MEAN_MOTION_DOT":5.3e-6,"MEAN_MOTION_DDOT":0},{"OBJECT_NAME":"STARLINK-31278","OBJECT_ID":"2024-044M","EPOCH":"2025-09-07T04:29:36.936384","MEAN_MOTION":15.27585913,"ECCENTRICITY":8.788e-5,"INCLINATION":43.0014,"RA_OF_ASC_NODE":63.1508,"ARG_OF_PERICENTER":289.0213,"MEAN_ANOMALY":71.0543,"EPHEMERIS_TYPE":0,"CLASSIFICATION_TYPE":"U","NORAD_CAT_ID":59163,"ELEMENT_SET_NO":999,"REV_AT_EPOCH":8550,"BSTAR":-3.7670904e-5,"MEAN_MOTION_DOT":-1.299e-5,"MEAN_MOTION_DDOT":0}]
